[{"OBJECT_NAME":"STARLINK-35057","OBJECT_ID":"2025-200F","EPOCH":"2026-03-09T22:33:38.756160","MEAN_MOTION":15.05642749,"ECCENTRICITY":0.00012721,"INCLINATION":97.6047,"RA_OF_ASC_NODE":139.9693,"ARG_OF_PERICENTER":96.9565,"MEAN_ANOMALY":263.1806,"EPHEMERIS_TYPE":0,"CLASSIFICATION_TYPE":"U","NORAD_CAT_ID":65525,"ELEMENT_SET_NO":999,"REV_AT_EPOCH":2916,"BSTAR":0.00012213276,"MEAN_MOTION_DOT":1.702e-5,"MEAN_MOTION_DDOT":0},{"OBJECT_NAME":"CZ-4B DEB","OBJECT_ID":"2008-053K","EPOCH":"2026-03-03T06:56:31.900704","MEAN_MOTION":15.04681815,"ECCENTRICITY":0.00115476,"INCLINATION":97.843,"RA_OF_ASC_NODE":88.8262,"ARG_OF_PERICENTER":63.9062,"MEAN_ANOMALY":296.3351,"EPHEMERIS_TYPE":0,"CLASSIFICATION_TYPE":"U","NORAD_CAT_ID":36289,"ELEMENT_SET_NO":999,"REV_AT_EPOCH":93214,"BSTAR":0.00025594062,"MEAN_MOTION_DOT":3.541e-5,"MEAN_MOTION_DDOT":0}]
